[Satellite]
VERSION=1.1
NAME=PRATHAM
NICKNAME=PRATHAM
TLE1=1 41783U 16059A   18020.94554090  .00000061  00000-0  21181-4 0  9995
TLE2=2 41783  98.1391  84.7307 0033363 195.7608 164.2558 14.62895476 70436
